NAME,DESCRIPTION,ADDRESS1,ADDRESS2,ADDRESS3,CITY,POSTCODE,COUNTRY,LAT,LNG,VENUE_STATUS,BUSINESS_TYPE,TOILET,WHEELCHAIR_ACCESS,PHONE_PRIMARY,PHONE_SECONDARY,EMAIL_PRIMARY,EMAIL_SECONDARY,WEBSITE,FACEBOOK,TWITTER,OPENING_HOURS,MON_OPEN,MON_CLOSE,TUE_OPEN,TUE_CLOSE,WED_OPEN,WED_CLOSE,THU_OPEN,THU_CLOSE,FRI_OPEN,FRI_CLOSE,SAT_OPEN,SAT_CLOSE,SUN_OPEN,SUN_CLOSE,PRODUCT_LOCATION,STOCK
The Lounge,,"227-231 North Street, Bedminster, Bristol",,,Bristol,BS3 1JJ,United Kingdom,51.44114173,-2.612137191,Pending,Community toilets,TRUE,TRUE,,,,,,,,TRUE,09:00,23:00,09:00,23:00,09:00,23:00,09:00,23:00,09:00,23:00,09:00,23:00,09:00,23:00,TBD,
Broadwalk Shopping Centre,,"Broadwalk, Knowle, Bristol",,,Bristol,BS4 2QU,United Kingdom,51.43441618,-2.568008447,Pending,Community toilets,TRUE,TRUE,,,,,,,,TRUE,08:00,18:30,08:00,18:30,08:00,18:30,08:00,18:30,08:00,19:30,08:00,18:00,10:00,16:00,TBD,
Barton Hill Settlement,,"41-43 Ducie Road,
BS5 0AX",,,Bristol,BS5 0AX,United Kingdom,51.45625085,-2.56367392,Pending,Community toilets,TRUE,TRUE,,,,,,,,TRUE,09:00,16:00,09:00,16:00,09:00,16:00,09:00,16:00,09:00,16:00,,,,,TBD,
A4 Brislington Park and Ride,,"Brislington Park And Ride, Stockwood Road, Brislington, Bristol",,,Bristol,BS4 5ZZ,United Kingdom,51.42790816,-2.537089229,Pending,Community toilets,TRUE,TRUE,,,,,,,,TRUE,06:30,21:30,06:30,21:30,06:30,21:30,06:30,21:30,06:30,21:30,07:30,20:00,,,TBD,
"The Park, Daventry Road",,"Daventry Road, Knowle, Bristol",,,Bristol,BS4 1DQ,United Kingdom,51.42972636,-2.58146112,Pending,Community toilets,TRUE,TRUE,,,,,,,,TRUE,07:00,22:00,07:00,22:00,07:00,22:00,07:00,22:00,07:00,22:00,09:00,16:00,09:00,16:00,TBD,
JD Weatherspoon - The Robert Fitzharding,,"The Robert Fitzharding, 24 Cannon St, Bedminster,
BS3 1BN",,,Bristol,BS3 1BN,United Kingdom,51.44118488,-2.600867876,Pending,Community toilets,TRUE,TRUE,,,,,,,,TRUE,08:00,24:00:00,08:00,24:00:00,08:00,24:00:00,08:00,24:00:00,08:00,1:00:00,08:00,01:00,08:00,24:00:00,TBD,
Tesco - Golden Hill,,"Golden Hill, Lime Trees Road,
BS6 7XW",,,Bristol,BS6 7XW,United Kingdom,51.48572643,-2.596167907,Pending,Community toilets,TRUE,TRUE,,,,,,,,TRUE,08:00,22:00,08:00,22:00,08:00,22:00,08:00,22:00,08:00,22:00,08:00,22:00,10:00,16:00,TBD,
Morrison's - Hartcliffe,,"Hareclive Rd, Petersons Avenue, Hartcliffe",,,Bristol,BS14 0BE,United Kingdom,51.40520215,-2.59963361,Pending,Community toilets,TRUE,TRUE,,,,,,,,TRUE,07:00,22:00,07:00,22:00,07:00,22:00,07:00,22:00,07:00,22:00,07:00,22:00,07:00,22:00,TBD,
Redcatch Park Public Conveniences,,"Broad Walk, Knowle, Bristol",,,Bristol,BS4 2RA,United Kingdom,51.43400389,-2.571934048,Pending,Community toilets,TRUE,TRUE,,,,,,,,TRUE,07:00,16:30,07:00,16:30,07:00,16:30,07:00,16:30,07:00,16:30,07:00,16:30,07:00,16:30,TBD,
St George's Bristol,,"Great George Street (off Park Street), Bristol",,,Bristol,BS1 5RR,United Kingdom,51.45422674,-2.603735573,Pending,Community toilets,TRUE,TRUE,,,,,,,,TRUE,10:00,18:00,10:00,18:00,10:00,18:00,10:00,18:00,10:00,18:00,10:00,18:00,10:00,18:00,TBD,
Canford Cemetery and Crematorium,,"Canford Lane, Westbury-on-Trym, Bristol",,,Bristol,BS9 3PQ,United Kingdom,51.49437632,-2.627000785,Pending,Community toilets,TRUE,TRUE,,,,,,,,TRUE,09:00,16:00,09:00,16:00,09:00,16:00,09:00,16:00,09:00,16:00,11:00,16:00,11:00,16:00,TBD,
Arnolfini Cafe (Bristol Beer Factory),,"Arnolfini, Narrow Quay, Bristol",,,Bristol,BS1 4QA,United Kingdom,51.44928164,-2.597373024,Pending,Community toilets,TRUE,TRUE,,,,,,,,TRUE,09:00,16:00,09:00,22:00,09:00,22:00,09:00,22:00,09:00,23:00,10:00,23:00,10:00,18:00,TBD,
The Lounge Coffee Shop and Bar Ltd,,167 Greystoke Avenue,,,Bristol,BS10 6AS,United Kingdom,51.503316,-2.602647258,Pending,Community toilets,TRUE,FALSE,,,,,,,,TRUE,09:00,16:00,09:00,16:00,09:00,16:00,09:00,22:30,09:00,22:30,09:00,22:30,08:00,14:00,TBD,
Blackboy Hill Urinal,,Top of Blackboy Hill (Westbury Road) just before the Downs,,,Bristol,BS8 1PB,United Kingdom,51.47086277,-2.615410233,Pending,Community toilets,TRUE,FALSE,,,,,,,,TRUE,00:00,24:00:00,00:00,24:00:00,00:00,24:00:00,00:00,24:00:00,00:00,24:00:00,00:00,24:00:00,00:00,24:00:00,TBD,
Knowle West Media Centre,,Linster Avenue,,,Bristol,BS4 1NL,United Kingdom,51.42548065,-2.593128005,Pending,Community toilets,TRUE,TRUE,,,,,,,,TRUE,09:30,17:00,09:30,17:00,09:30,17:00,09:30,17:00,09:30,17:00,,,,,TBD,
Avonmouth Community Centre,,"257 Avonmouth Road, Avonmouth",,,Bristol,BS11 9EN,United Kingdom,51.5001643,-2.698359442,Pending,Community toilets,TRUE,TRUE,,,,,,,,TRUE,09:30,16:30,09:30,16:30,09:30,16:30,09:30,16:30,,,,,,,TBD,
St Andrews Park - Public Conveniences,,"Melita Rd (& Effingham Road), Bristol",,,Bristol,BS6 5AZ,United Kingdom,51.47401648,-2.587038114,Pending,Community toilets,TRUE,TRUE,,,,,,,,TRUE,07:30,21:00,07:30,21:00,07:30,21:00,07:30,21:00,07:30,21:00,07:30,21:00,07:30,21:00,TBD,
Dundridge Public Conveniences,,"Recreation Ground Dundridge Lane Bristol,
BS5 8SZ",,,Bristol,BS5 8SZ,United Kingdom,51.44983192,-2.52871225,Pending,Community toilets,TRUE,FALSE,,,,,,,,FALSE,,,,,,,,,,,,,,,TBD,
Redcatch Park Pavillion,,"Redcatch Park, Broad Walk, Knowle",,,Bristol,BS4 2RA,United Kingdom,51.43394791,-2.571394336,Pending,Community toilets,TRUE,TRUE,,,,,,,,FALSE,,,,,,,,,,,,,,,TBD,
Sainsbury's - St Phillips Causeway,,"St Philips Causeway, St Philips,
BS4 3QU",,,Bristol,BS4 3QU,United Kingdom,51.44301561,-2.559827468,Pending,Community toilets,TRUE,FALSE,,,,,,,,TRUE,07:00,22:00,07:00,22:00,07:00,22:00,07:00,22:00,07:00,22:00,07:00,22:00,07:00,22:00,TBD,
"City Hall, Bristol City Council",,"College Green, Bristol",,,Bristol,BS1 5TL,United Kingdom,51.45260726,-2.602039671,Pending,Community toilets,TRUE,TRUE,,,,,,,,TRUE,08:00,19:00,08:00,19:00,08:00,19:00,08:00,19:00,08:00,19:00,,,,,TBD,
Bristol Central Library,,"Deanery Road, Bristol",,,Bristol,BS1 5TL,United Kingdom,51.45148437,-2.602589802,Pending,Community toilets,TRUE,TRUE,,,,,,,,TRUE,10:00,19:00,10:00,19:00,,,10:00,19:00,10:00,16:45,10:00,16:45,13:00,16:45,TBD,
Millenium Square car park public toilets,,"Canons Way, Bristol",,,Bristol,BS1 5LL,United Kingdom,51.44944101,-2.600533854,Pending,Community toilets,TRUE,TRUE,,,,,,,,TRUE,11:00,17:00,11:00,17:00,11:00,17:00,11:00,17:00,11:00,17:00,11:00,17:00,11:00,17:00,TBD,
Canford Cemetery - Public Convenience,,"Canford Lane Westbury-on-Trym, Bristol",,,Bristol,BS9 3PQ,United Kingdom,51.49315733,-2.626470442,Pending,Community toilets,TRUE,TRUE,,,,,,,,TRUE,09:00,16:00,09:00,16:00,09:00,16:00,09:00,16:00,09:00,16:00,09:00,16:00,10:00,16:00,TBD,
Blaise Castle House Museum and Roman Villa,,Henbury Road,,,Bristol,BS10 7QS,United Kingdom,51.50576747,-2.632435511,Pending,Community toilets,TRUE,FALSE,,,,,,,,TRUE,10:00,17:00,,,,,11:00,16:00,11:00,16:00,11:00,16:00,11:00,16:00,TBD,
Tesco - Callington Road,,"Callington Road,
BS4 5AY",,,Bristol,BS4 5AY,United Kingdom,51.43247504,-2.554649413,Pending,Community toilets,TRUE,TRUE,,,,,,,,TRUE,08:00,22:00,08:00,22:00,08:00,22:00,08:00,22:00,08:00,22:00,10:00,16:00,,,TBD,
Cafe on the Square,,"Shirehampton Road, Bristol",,,Bristol,BS9 2DY,United Kingdom,51.48798283,-2.647594506,Pending,Community toilets,TRUE,TRUE,,,,,,,,TRUE,09:00,17:00,09:00,17:00,09:00,17:00,09:00,17:00,09:00,17:00,10:00,14:00,,,TBD,
The Wellspring Healthy Living Centre,,"Bean Street, Barton Hill",,,Bristol,BS5 9QY,United Kingdom,51.45575854,-2.561423367,Pending,Community toilets,TRUE,TRUE,,,,,,,,TRUE,09:00,19:00,09:00,19:00,09:00,19:00,09:00,19:00,09:00,19:00,,,,,TBD,
Brandon Hill Park - Public Conveniences,,"Great George Street, City Centre, Bristol",,,Bristol,BS1 5RR,United Kingdom,51.45374389,-2.60747082,Pending,Community toilets,TRUE,TRUE,,,,,,,,TRUE,08:00,15:30,08:00,15:30,08:00,15:30,08:00,15:30,08:00,15:30,08:00,15:30,08:00,15:30,TBD,
Sainburys Winterstoke Road,,111 Winterstoke Road,,,Bristol,BS3 3NS,United Kingdom,51.43372648,-2.619347181,Pending,Community toilets,TRUE,TRUE,,,,,,,,TRUE,07:00,22:00,07:00,22:00,07:00,22:00,07:00,22:00,07:00,22:00,07:00,22:00,10:00,16:00,TBD,
Stonehouse Pizza and Carvery,,Henbury Arms 189 Henbury Road,,,Bristol,BS10 7AD,United Kingdom,51.50595999,-2.628403873,Pending,Community toilets,TRUE,TRUE,,,,,,,,TRUE,08:00,22:00,08:00,22:00,08:00,22:00,08:00,22:00,08:00,22:00,08:00,22:00,08:00,22:00,TBD,
"Hengrove Play Park, Hengrove Leisure Centre,",,"Hengrove way, Hengrove, Bristol,
BS14 0HR",,,Bristol,BS14 0HR,United Kingdom,51.4154325,-2.584913661,Pending,Community toilets,TRUE,TRUE,,,,,,,,FALSE,,,,,,,,,,,,,,,TBD,
Avonmouth Medical Centre (Pioneer Medical Group),,"1 Collins Street, Bristol",,,Bristol,BS11 9JJ,United Kingdom,51.49875333,-2.694528993,Pending,Community toilets,TRUE,TRUE,,,,,,,,TRUE,08:00,18:30,08:00,18:30,08:00,18:30,08:00,18:30,08:00,17:00,,,,,TBD,
Henbury Sports Centre,,Avonmouth Way,,,Bristol,BS10 7NG,United Kingdom,51.50930743,-2.632788398,Pending,Community toilets,TRUE,TRUE,,,,,,,,TRUE,07:15,22:00,07:15,22:00,07:15,22:00,07:15,22:00,07:15,22:00,07:15,22:00,07:30,20:00,TBD,
Mshed,,"Prince's Wharf, Wapping Road",,,Bristol,BS1 4RN,United Kingdom,51.4477456,-2.597975318,Pending,Community toilets,TRUE,TRUE,,,,,,,,TRUE,10:00,17:00,10:00,17:00,10:00,17:00,10:00,17:00,10:00,17:00,10:00,17:00,10:00,17:00,TBD,
the Life Boat,,"25 High St, Bristol",,,Bristol,BS11 0DX,United Kingdom,51.48900498,-2.675364863,Pending,Community toilets,TRUE,FALSE,,,,,,,,TRUE,10:00,23:00,10:00,23:00,10:00,23:00,10:00,23:00,10:00,23:00,10:00,23:00,12:00,22:00,TBD,
Sea Walls Public Toilets,,Circular Road By Sea Walls viewing Area,,,Bristol,BS9 1ZZ,United Kingdom,51.47014392,-2.635541878,Pending,Community toilets,TRUE,TRUE,,,,,,,,TRUE,07:30,18:00,07:30,18:00,07:30,18:00,07:30,18:00,07:30,18:00,07:30,18:00,07:30,18:00,TBD,
A4 Portway Park & Ride,,"A4 Portway, Bristol",,,Bristol,BS11 9QE,United Kingdom,51.48998663,-2.688594116,Pending,Community toilets,TRUE,TRUE,,,,,,,,TRUE,06:00,21:40,06:00,21:40,06:00,21:40,06:00,21:40,06:00,21:40,06:00,21:40,09:00,18:40,TBD,
BCC Customers Service Point,,"100 Temple Street, Redcliff, Bristol",,,Bristol,BS1 6AG,United Kingdom,51.44960468,-2.586577171,Pending,Community toilets,TRUE,TRUE,,,,,,,,FALSE,,,,,,,,,,,,,,,TBD,
Ridingleaze Medical Centre (Pioneer Medical Group),,"Ridingleaze, Lawrence Weston",,,Bristol,BS11 0QE,United Kingdom,51.50044701,-2.659814145,Pending,Community toilets,TRUE,TRUE,,,,,,,,TRUE,08:00,18:30,08:00,18:30,08:00,18:30,08:00,18:30,08:00,18:30,,,,,TBD,
Southville Centre,,"Beauley Rd,
BS3 1QG",,,Bristol,BS3 1QG,United Kingdom,51.44368752,-2.605533865,Pending,Community toilets,TRUE,TRUE,,,,,,,,TRUE,08:30,20:15,08:30,20:15,08:30,20:15,08:30,20:15,08:30,18:00,,,,,TBD,
Ashton Gate Limited,,"Coffee shop, Ashton Gate Stadium, Bristol",,,Bristol,BS3 2EL,United Kingdom,51.4393106,-2.620746956,Pending,Community toilets,TRUE,TRUE,,,,,,,,TRUE,08:00,16:00,08:00,16:00,08:00,16:00,08:00,16:00,08:00,16:00,,,,,TBD,
The Jersey Lily,,"193 Whiteladies Road, Bristol",,,Bristol,BS8 2SB,United Kingdom,51.46950356,-2.614011768,Pending,Community toilets,TRUE,FALSE,,,,,,,,TRUE,11:00,23:00,11:00,23:00,11:00,23:00,11:00,24:00:00,11:00,24:00:00,11:00,24:00:00,12:00,23:00,TBD,
Oldbury Court Estate - Public Conveniences,,"Oldbury Court Road, Bristol",,,Bristol,BS16 2JH,United Kingdom,51.48791607,-2.528176308,Pending,Community toilets,TRUE,TRUE,,,,,,,,TRUE,08:00,17:15,08:00,17:15,08:00,17:15,08:00,17:15,08:00,17:15,08:00,17:15,08:00,17:15,TBD,
Tobacco Factory,,"Raleigh Road, Bristol",,,Bristol,BS3 1TF,United Kingdom,51.44239095,-2.613499731,Pending,Community toilets,TRUE,TRUE,,,,,,,,TRUE,10:00,23:00,10:00,23:00,10:00,23:00,10:00,23:00,10:00,12:00,10:00,12:00,10:00,23:00,TBD,
The Kitchen,,"The Station, Silver Street, Bristol",,,Bristol,BS1 2AG,United Kingdom,51.45744513,-2.592813472,Pending,Community toilets,TRUE,TRUE,,,,,,,,TRUE,09:00,15:00,09:00,15:00,09:00,15:00,09:00,15:00,09:00,15:00,09:00,15:00,,,TBD,
"Cabot Circus Shopping Centre, Lower ground floor",,"Glass House, Broadmead",,,Bristol,BS1 3BX,United Kingdom,51.45894167,-2.584330949,Pending,Community toilets,TRUE,TRUE,,,,,,,,TRUE,09:00,20:15,09:00,20:15,09:00,20:15,09:00,20:15,09:00,20:15,09:00,20:15,09:00,17:30,TBD,
Campus Pool,,"Whitchurch Rd, Bishopsworth",,,Bristol,BS13 7RW,United Kingdom,51.41598687,-2.617136806,Pending,Community toilets,TRUE,TRUE,,,,,,,,TRUE,10:00,21:00,10:00,21:00,10:00,21:00,10:00,21:00,10:00,18:00,10:00,18:00,,,TBD,
"Ashton Court Estate, golf hub Public Conveniences",,"Golf Hub, Rownham Hill, Long Ashton, North Somerset",,,Bristol,BS8 3PX,United Kingdom,51.45111575,-2.644113584,Pending,Community toilets,TRUE,TRUE,,,,,,,,TRUE,07:00,17:00,07:00,17:00,07:00,17:00,07:00,17:00,07:00,17:00,07:00,17:00,07:00,17:00,TBD,
Blaise Castle Estate Public Conveniences,,"Kings Weston Road, Kingsweston, Bristol",,,Bristol,BS10 7QT,United Kingdom,51.50543654,-2.636649362,Pending,Community toilets,TRUE,TRUE,,,,,,,,TRUE,08:30,16:00,08:30,16:00,08:30,16:00,08:30,16:00,08:30,16:00,,,,,TBD,
"Ambition Lawrence Weston, Lawrence Weston Youth Centre",,"Lawrence Weston Road, Long Cross, Bristol",,,Bristol,BS11 0RX,United Kingdom,51.50494393,-2.653819201,Pending,Community toilets,TRUE,TRUE,,,,,,,,TRUE,09:00,16:00,09:00,16:00,09:00,16:00,09:00,16:00,09:00,16:00,,,,,TBD,
Spike Island,,"133 Cumberland Road, Bristol",,,Bristol,BS1 6UX,United Kingdom,51.44703987,-2.610621077,Pending,Community toilets,TRUE,TRUE,,,,,,,,TRUE,08:30,17:00,08:30,17:00,08:30,17:00,08:30,17:00,08:30,17:00,10:00,17:00,10:00,17:00,TBD,
Fishponds Library,,"Robinson House, Hockeys Lane, Bristol",,,Bristol,BS16 3HL,United Kingdom,51.47758701,-2.533122624,Pending,Community toilets,TRUE,TRUE,,,,,,,,TRUE,10:00,17:00,10:00,17:00,,,11:00,19:00,10:00,17:00,10:00,17:00,,,TBD,
Tinto Lounge,,"344-346 Gloucester Road, Horfield, Bristol",,,Bristol,BS7 8TP,United Kingdom,51.48301589,-2.58744522,Pending,Community toilets,TRUE,FALSE,,,,,,,,TRUE,08:00,23:00,08:00,23:00,08:00,23:00,08:00,23:00,08:00,23:00,09:00,23:00,09:00,23:00,TBD,
Long Ashton Park and Ride,,"Aston Road, Bristol",,,Bristol,BS3 2HB,United Kingdom,51.43623479,-2.635833477,Pending,Community toilets,TRUE,TRUE,,,,,,,,TRUE,05:30,22:45,05:30,22:45,05:30,22:45,05:30,22:45,05:30,22:45,05:30,22:45,,,TBD,
McDonald's - Brislington,,"Bath Road / Emery Road,
BS4 5PF",,,Bristol,BS4 5PF,United Kingdom,51.43006757,-2.538739985,Pending,Community toilets,TRUE,TRUE,,,,,,,,TRUE,00:00,24:00:00,00:00,24:00:00,00:00,24:00:00,00:00,24:00:00,00:00,24:00:00,00:00,24:00:00,00:00,24:00:00,TBD,
Burger King - St Phillips Causeway,,"St Phillips Causeway,
BS4 3BD",,,Bristol,BS4 3BD,United Kingdom,51.44230659,-2.561430268,Pending,Community toilets,TRUE,FALSE,,,,,,,,TRUE,10:00,22:00,10:00,22:00,10:00,22:00,10:00,22:00,08:00,01:00,08:00,01:00,10:00,22:00,TBD,
JD Weatherspoon - Van Dyck Forum,,"Van Dyck Forum, 748-756 Fishponds Road",,,Bristol,BS16 3UA,United Kingdom,51.47957824,-2.530237079,Pending,Community toilets,TRUE,TRUE,,,,,,,,TRUE,08:00,24:00:00,08:00,24:00:00,08:00,24:00:00,08:00,24:00:00,08:00,01:00,08:00,01:00,08:00,24:00:00,TBD,
Conham river park,,Conham Road,,,Bristol,BS15 1AW,United Kingdom,51.44718265,-2.534776879,Pending,Community toilets,TRUE,FALSE,,,,,,,,FALSE,,,,,,,,,,,,,,,TBD,
Ashton Court Estate Public Conveniences Stable yard,,"Kennel Lodge Road, Long Ashton, North Somerset",,,Bristol,BS41 9JN,United Kingdom,51.44419589,-2.63774787,Pending,Community toilets,TRUE,TRUE,,,,,,,,TRUE,07:00,17:00,07:00,17:00,07:00,17:00,07:00,17:00,07:00,17:00,07:00,17:00,07:00,17:00,TBD,
Burger King,,"4 Eastgate Road, Eastgate Centre",,,Bristol,BS5 6XX,United Kingdom,51.47404764,-2.565045185,Pending,Community toilets,TRUE,TRUE,,,,,,,,TRUE,08:00,23:00,08:00,23:00,08:00,23:00,08:00,23:00,08:00,23:00,09:00,23:00,09:00,23:00,TBD,
We the curious - Cafe,,"Anchor Road, Bristol",,,Bristol,BS1 5DB,United Kingdom,51.45042127,-2.60048549,Pending,Community toilets,TRUE,TRUE,,,,,,,,TRUE,10:00,17:00,10:00,17:00,10:00,17:00,10:00,17:00,10:00,17:00,10:00,18:00,10:00,18:00,TBD,
Create Centre,,"Smeaton Road, Howells",,,Bristol,BS1 6XN,United Kingdom,51.44711113,-2.622418522,Pending,Community toilets,TRUE,TRUE,,,,,,,,TRUE,08:30,17:00,08:30,17:00,08:30,17:00,08:30,17:00,08:30,16:30,10:00,16:00,08:00,24:00:00,TBD,
V-shed (JD Weatherspoons),,"V Shed, Canon's Road",,,Bristol,BS1 5UH,United Kingdom,51.44969029,-2.598835103,Pending,Community toilets,TRUE,TRUE,,,,,,,,TRUE,08:00,24:00:00,08:00,01:00,08:00,02:00,08:00,02:00,08:00,02:00,08:00,03:00,08:00,00:00,TBD,
River Cottage Canteen,,"St Johns Court, Whiteladies Road, Bristol",,,Bristol,BS8 2QY,United Kingdom,51.46783589,-2.613124492,Pending,Community toilets,TRUE,TRUE,,,,,,,,TRUE,10:00,22:00,10:00,22:00,10:00,22:00,10:00,22:00,10:00,22:00,09:00,22:00,09:00,17:00,TBD,
Banco Lounge,,"107 Wells Rd, Bristol",,,Bristol,BS4 2BS,United Kingdom,51.4415405,-2.577581635,Pending,Community toilets,TRUE,TRUE,,,,,,,,TRUE,09:00,23:00,09:00,23:00,09:00,23:00,09:00,23:00,09:00,23:00,09:00,23:00,09:00,23:00,TBD,
Victoria Park Public Conveniences Park Lodge,,"Somerset Terrace, Bristol",,,Bristol,BS3 4LL,United Kingdom,51.4400883,-2.58975522,Pending,Community toilets,TRUE,TRUE,,,,,,,,TRUE,07:30,17:15,07:30,17:15,07:30,17:15,07:30,17:15,07:30,17:15,07:30,17:15,07:30,17:15,TBD,
Ardagh Public Conveniences Horfield Common,,"Kellaway Avenue, Horfield, Bristol",,,Bristol,BS6 7YL,United Kingdom,51.48506816,-2.592904552,Pending,Community toilets,TRUE,TRUE,,,,,,,,TRUE,08:00,17:15,08:00,17:15,08:00,17:15,08:00,17:15,08:00,17:15,08:00,17:15,08:00,17:15,TBD,
"The Greenway Centre, The Southmead Development Trust",,"The Greenway Centre, Doncaster Road",,,Bristol,BS10 5PY,United Kingdom,51.49948762,-2.608791325,Pending,Community toilets,TRUE,TRUE,,,,,,,,TRUE,08:00,22:00,08:00,22:00,08:00,22:00,08:00,22:00,08:00,22:00,09:00,17:00,09:00,17:00,TBD,
Stoke Road Public Toilets,,"Stoke Road by the Water Tower, BS9 1FG",,,Bristol,BS9 1FG,United Kingdom,51.47177703,-2.617668541,Pending,Community toilets,TRUE,TRUE,,,,,,,,TRUE,07:45,20:15,07:45,20:15,07:45,20:15,07:45,20:15,07:45,20:15,07:45,20:15,07:45,20:15,TBD,
Alma Tavern,,"18-20 Alma Vale Road, Clifton, Bristol",,,Bristol,BS8 2HY,United Kingdom,51.46252218,-2.614766836,Pending,Community toilets,TRUE,FALSE,,,,,,,,TRUE,12:00,23:00,12:00,23:00,12:00,23:00,12:00,23:00,12:00,00:00,12:00,00:00,12:00,23:00,TBD,
Helios Medical Centre Stoke Hill,,"17 Stoke Hill, Bristol",,,Bristol,BS9 1JN,United Kingdom,51.47541193,-2.630748386,Pending,Community toilets,TRUE,TRUE,,,,,,,,TRUE,08:00,19:00,08:00,20:00,07:30,18:30,,,08:00,18:30,,,,,TBD,
Bradgate Health Centre (Pioneer Medical Group),,"Ardenton Walk, Brentry",,,Bristol,BS10 6SP,United Kingdom,51.51027222,-2.617681143,Pending,Community toilets,TRUE,TRUE,,,,,,,,TRUE,08:00,18:30,08:00,18:30,08:00,18:30,08:00,18:30,08:00,18:30,08:00,13:00,,,TBD,
Snuff Mills Park Public Conveniences,,"River View, Bristol,
BS16  1DL",,,Bristol,BS16 1DL,United Kingdom,51.48623863,-2.544485893,Pending,Community toilets,TRUE,TRUE,,,,,,,,TRUE,08:00,17:15,08:00,17:15,08:00,17:15,08:00,17:15,08:00,17:15,08:00,17:15,08:00,17:15,TBD,
East Trees Health Centre,,100a Fishponds Road,,,Bristol,BS5 6SA,United Kingdom,51.47010539,-2.562199668,Pending,Community toilets,TRUE,TRUE,,,,,,,,TRUE,08:00,19:30,08:00,18:30,08:00,18:30,08:00,18:30,08:00,18:30,,,,,TBD,
Waitrose - Henleaze,,51 Northumbria Drive,,,Bristol,BS9 4HN,United Kingdom,51.48040126,-2.612284221,Pending,Community toilets,TRUE,TRUE,,,,,,,,TRUE,07:30,21:00,07:30,21:00,07:30,21:00,07:30,21:00,07:30,21:00,07:30,21:00,10:00,16:00,TBD,
Horfield Lesuire centre,,"Dorinan Road, Horfield",,,Bristol,BS7 0XW,United Kingdom,51.49368995,-2.583775109,Pending,Community toilets,TRUE,TRUE,,,,,,,,TRUE,06:30,22:30,06:30,22:30,06:30,22:30,06:30,22:30,06:30,22:30,08:00,20:00,08:00,20:00,TBD,
The Range,,"Imperial Retail Park, Hartcliffe Way, Bristol",,,Bristol,BS13 7TJ,United Kingdom,51.41680257,-2.602610566,Pending,Community toilets,TRUE,TRUE,,,,,,,,TRUE,08:30,20:00,08:30,20:00,08:30,20:00,08:30,20:00,08:30,20:00,08:30,20:00,10:00,17:00,TBD,
South Bristol Crematorium and Cemetery,,"Bridgwater Road, Bristol",,,Bristol,BS13 7AS,United Kingdom,51.42424128,-2.624445359,Pending,Community toilets,TRUE,TRUE,,,,,,,,TRUE,09:00,16:00,09:00,16:00,09:00,16:00,09:00,16:00,09:00,16:00,11:00,16:00,11:00,16:00,TBD,
The Yeoman,,700 Wells Road,,,Bristol,BS14 9HX,United Kingdom,51.41351649,-2.559294373,Pending,Community toilets,TRUE,TRUE,,,,,,,,TRUE,11:00,23:00,11:00,23:00,11:00,23:00,11:00,23:00,11:00,23:00,11:00,23:00,11:00,23:00,TBD,
Sainsbury's - Clifton Down,,"Clifton Down Shopping Centre, Whiteladies Road,
BS8 2NN",,,Bristol,BS8 2NN,United Kingdom,51.46400927,-2.610610836,Pending,Community toilets,TRUE,TRUE,,,,,,,,TRUE,08:00,22:00,08:00,22:00,08:00,22:00,08:00,22:00,08:00,22:00,08:00,22:00,11:00,17:00,TBD,
JD Weatherspoon - St Georges Hall,,"St Georges Hall, 203 Church Rd",,,Bristol,BS5 9HL,United Kingdom,51.45937539,-2.555205859,Pending,Community toilets,TRUE,TRUE,,,,,,,,TRUE,08:00,12:00,08:00,12:00,08:00,12:00,08:00,12:00,08:00,01:00,08:00,01:00,08:00,12:00,TBD,
Bristol Museum and Art Gallery,,"Queens Road, Bristol",,,Bristol,BS8 1RL,United Kingdom,51.45628678,-2.605153713,Pending,Community toilets,TRUE,TRUE,,,,,,,,TRUE,10:00,17:00,10:00,17:00,10:00,17:00,10:00,17:00,10:00,17:00,10:00,17:00,10:00,17:00,TBD,
Tenpin Bristol,,St Phillips causeway,,,Bristol,BS2 0SP,United Kingdom,51.44884685,-2.560192833,Pending,Community toilets,TRUE,TRUE,,,,,,,,TRUE,11:00,23:00,11:00,23:00,11:00,23:00,11:00,23:00,11:00,23:00,10:00,23:00,10:00,23:00,TBD,
Merrywood Practice,,"Knowle Health Park, Downton Road",,,Bristol,BS4 1WH,United Kingdom,51.42804812,-2.596457163,Pending,Community toilets,TRUE,TRUE,,,,,,,,TRUE,08:30,18:30,08:30,18:30,08:30,18:30,08:30,18:30,08:30,18:30,,,,,TBD,
Asda Whitchurch,,"Whitchurch District Centre, Oatlands Avenue",,,Bristol,BS14 0ST,United Kingdom,51.4139098,-2.570960734,Pending,Community toilets,TRUE,TRUE,,,,,,,,TRUE,08:00,23:00,07:30,23:00,07:30,23:00,07:30,23:00,07:30,23:00,07:00,22:00,10:00,16:00,TBD,
Helios - Sea Mills Surgery,,2 Riverleaze,,,Bristol,BS9 2HL,United Kingdom,51.48491316,-2.650082791,Pending,Community toilets,TRUE,TRUE,,,,,,,,TRUE,08:00,18:30,08:00,18:30,08:00,18:30,08:00,18:30,08:00,18:30,,,,,TBD,
The Hub,,"1 Fedden Building, Gainsborough Square",,,Bristol,BS7 9FB,United Kingdom,51.49008976,-2.562592058,Pending,Community toilets,TRUE,TRUE,,,,,,,,TRUE,09:00,15:00,09:00,15:00,09:00,15:00,09:00,15:00,09:00,15:00,,,,,TBD,
"Greenbank Cemetery (The Lodge, Greenbank Road entrance)",,"Greenbank Road, Easton, Bristol",,,Bristol,BS5 6HL,United Kingdom,51.46850881,-2.553696129,Pending,Community toilets,TRUE,FALSE,,,,,,,,TRUE,09:00,16:00,09:00,16:00,09:00,16:00,09:00,16:00,09:00,16:00,11:00,16:00,11:00,16:00,TBD,
Suspension Bridge Toilets,,"Suspension Bridge Road, opposite toll station",,,Bristol,BS9 3ZZ,United Kingdom,51.45608266,-2.62519978,Pending,Community toilets,TRUE,TRUE,,,,,,,,TRUE,08:00,23:00,08:00,23:00,08:00,23:00,08:00,23:00,08:00,23:00,08:00,23:00,08:00,23:00,TBD,
Grupo Lounge (Lounges),,8 Canford Lane,,,Bristol,BS9 3DH,United Kingdom,51.49288787,-2.619472712,Pending,Community toilets,TRUE,TRUE,,,,,,,,TRUE,09:00,23:00,09:00,23:00,09:00,23:00,09:00,23:00,09:00,23:00,09:00,23:00,09:00,23:00,TBD,
SS Great Britain,,"Great Western Dockyard, Gas Ferry Road, Bristol",,,Bristol,BS1 6TY,United Kingdom,51.44884306,-2.607457443,Pending,Community toilets,TRUE,TRUE,,,,,,,,TRUE,10:00,16:30,10:00,16:30,10:00,16:30,10:00,16:30,10:00,16:30,10:00,16:30,10:00,16:30,TBD,
Watershed,,"1 Cannons Rd, Harbourside, Bristol",,,Bristol,BS1 5TX,United Kingdom,51.45177337,-2.598071132,Pending,Community toilets,TRUE,TRUE,,,,,,,,TRUE,09:00,23:00,09:00,23:00,09:00,23:00,09:00,23:00,09:00,23:00,10:00,23:00,10:00,23:00,TBD,
Cabot Circus Shopping Centre 3 floor management suite,,"Glass House, Broadmead,BS1 3BX",,,Bristol,BS1 3BX,United Kingdom,51.45826965,-2.58474162,Pending,Community toilets,TRUE,TRUE,,,,,,,,TRUE,09:00,20:15,09:00,20:15,09:00,20:15,09:00,20:15,09:00,20:15,09:00,20:15,09:00,17:30,TBD,
Source Cafe - St Nicholas Market,,"St Nicholas Market Office, St Nicholas Market, Corn Street, Bristol",,,Bristol,BS1 1JQ,United Kingdom,51.45440404,-2.593528876,Pending,Community toilets,TRUE,TRUE,,,,,,,,TRUE,09:30,17:00,09:30,17:00,09:30,17:00,09:30,17:00,09:30,17:00,09:30,17:30,,,TBD,
Bristol South Swimming Pool,,Dean Lane,,,Bristol,BS3 1BS,United Kingdom,51.4422586,-2.600610543,Pending,Community toilets,TRUE,TRUE,,,,,,,,TRUE,07:30,20:00,07:30,19:00,07:30,20:00,07:30,20:00,07:30,18:00,08:00,15:45,,,TBD,
Greenbank Cemetery (The Mortuary),,"Greenbank Road, Easton, Bristol",,,Bristol,BS5 6HL,United Kingdom,51.47042779,-2.55527571,Pending,Community toilets,TRUE,FALSE,,,,,,,,TRUE,09:00,16:30,09:00,16:30,09:00,16:30,09:00,16:30,09:00,16:30,,,,,TBD,
Porto Lounge (business name is Lounges),,765 Fishponds Road,,,Bristol,BS16 3BS,United Kingdom,51.48171882,-2.528116235,Pending,Community toilets,TRUE,TRUE,,,,,,,,TRUE,09:00,23:00,09:00,23:00,09:00,23:00,09:00,23:00,09:00,23:00,09:00,23:00,09:00,23:00,TBD,
Air Balloon Surgery,,"Kenn Rd, St George, Bristol",,,Bristol,BS5 7PD,United Kingdom,51.45893761,-2.532468322,Pending,Community toilets,TRUE,TRUE,,,,,,,,TRUE,08:00,18:30,08:00,18:30,08:00,18:30,08:00,18:30,08:00,18:30,,,,,TBD,
The Old Crow,,Crow Lane,,,Bristol,BS10 7DR,United Kingdom,51.50993316,-2.618816316,Pending,Community toilets,TRUE,FALSE,,,,,,,,TRUE,11:00,23:00,11:00,23:00,11:00,23:00,11:00,23:00,11:00,23:00,11:00,23:00,11:00,23:00,TBD,
Creative Workspace,,"Queens Road, Withywood, Bristol",,,Bristol,BS13 8LF,United Kingdom,51.41082773,-2.61856392,Pending,Community toilets,TRUE,TRUE,,,,,,,,TRUE,,,09:00,15:00,09:00,15:00,09:00,15:00,09:00,15:00,,,,,TBD,
Windmill Hill City Farm,,"Philip Street, Bedminster, Bristol",,,Bristol,BS3 4EA,United Kingdom,51.44231383,-2.592825322,Pending,Community toilets,TRUE,TRUE,,,,,,,,TRUE,09:00,17:00,09:00,17:00,09:00,17:00,09:00,17:00,09:00,17:00,09:00,17:00,09:00,17:00,TBD,